GLOBAL-2                
1 43812U 18099BG  26068.69955396  .00003970  00000+0  26145-3 0  9998
2 43812  97.3697 109.3280 0007454 127.1924 232.9986 15.08046936396919
STARLINK-4104           
1 53163U 22083AH  26068.57258538 -.00002579  00000+0 -14407-3 0  9991
2 53163  53.2164 164.7936 0000991  89.2621 270.8484 15.08823667201343
